SL-16 R/B               
1 23405U 94077B   26189.95579782 -.00000286  00000+0 -12160-3 0  9999
2 23405  70.9830  97.3665 0004050 308.2299  51.8459 14.15576146633397
ARIANE 40+ R/B          
1 23561U 95021B   26189.81516977  .00000155  00000+0  63182-4 0  9998
2 23561  98.4402 259.5768 0007703 132.8530 338.5369 14.39845274636679
SL-16 R/B               
1 23705U 95058B   26189.68595017 -.00000191  00000+0 -73235-4 0  9997
2 23705  71.0218 286.2214 0014624 291.3381  68.6181 14.15508416584975
SL-16 R/B               
1 24298U 96051B   26189.63128670  .00000136  00000+0  10028-3 0  9998
2 24298  70.7652 279.2673 0017277 306.6922  53.2610 14.12453937538723
ORBVIEW 2 (SEASTAR)     
1 24883U 97037A   26189.69634729  .00000175  00000+0  77100-4 0  9994
2 24883  98.8708 357.3136 0003244  73.8405 286.3136 14.35564724525838
SL-16 R/B               
1 25400U 98043G   26189.90276436  .00000015  00000+0  25364-4 0  9997
2 25400  98.8376 144.2501 0010369  28.8793 331.2959 14.26072082456264
SL-16 R/B               
1 25407U 98045B   26189.63752386 -.00000167  00000+0 -60215-4 0  9993
2 25407  71.0123 287.2191 0008501 215.6435 144.4122 14.16207526444222
ISS (ZARYA)             
1 25544U 98067A   26189.73419088  .00005258  00000+0  10370-3 0  9999
2 25544  51.6304 193.4497 0006669 272.1743  87.8481 15.48947664575097
CZ-4B R/B               
1 25732U 99025C   26189.66445523  .00000022  00000+0  31594-4 0  9994
2 25732  98.6473 230.9613 0037010 358.7051 110.4720 14.18286971405317
OKEAN-O                 
1 25860U 99039A   26189.77256583  .00000411  00000+0  60437-4 0  9999
2 25860  97.9305 248.3215 0001021  76.4526 283.6800 14.80492735452309
SL-16 R/B               
1 25861U 99039B   26189.77430588  .00000332  00000+0  48800-4 0  9991
2 25861  97.9826 248.5747 0013853 220.2066 139.8123 14.81866678454791
DELTA 2 R/B             
1 25876U 99041E   26189.69296282  .00001200  00000+0  23116-3 0  9999
2 25876  51.7612 177.8781 0501235 345.5594  13.1446 14.12066017380123
HELIOS 1B               
1 25977U 99064A   26189.69661790  .00001087  00000+0  12461-3 0  9990
2 25977  98.1594  95.4575 0002207  61.6361 298.5077 14.88064476703250
TERRA                   
1 25994U 99068A   26189.93962939  .00000244  00000+0  58555-4 0  9998
2 25994  97.9444 238.6222 0003129 135.1795 327.3115 14.61120385412784
SL-16 R/B               
1 26070U 00006B   26189.47231259 -.00000228  00000+0 -91268-4 0  9993
2 26070  71.0004 203.8694 0016912 349.4789  10.5978 14.15840041365657
TITAN 4B R/B            
1 26474U 00047B   26189.91538721  .00001830  00000+0  11715-3 0  9995
2 26474  67.9873  59.4083 0045977 264.9880  94.6020 15.10313046411217
ENVISAT                 
1 27386U 02009A   26189.87305616  .00000047  00000+0  29137-4 0  9995
2 27386  98.3844 140.7090 0001361  84.2537 337.7178 14.39069831276606
IDEFIX & ARIANE 42P R/B 
1 27422U 02021B   26189.80382928  .00000128  00000+0  65001-4 0  9994
2 27422  98.5942 127.0530 0011486 185.2254 174.8811 14.31091894261347
AQUA                    
1 27424U 02022A   26189.95349685  .00000518  00000+0  11265-3 0  9991
2 27424  98.4290 159.6731 0000753 101.4132 325.9430 14.62191028286457
CZ-4B R/B               
1 27432U 02024C   26189.75341054  .00000003  00000+0  24386-4 0  9990
2 27432  98.8689 242.4323 0050791  40.1182  73.8783 14.14567672246355
MIDORI II (ADEOS-II)    
1 27597U 02056A   26189.90847185  .00000155  00000+0  78853-4 0  9996
2 27597  98.7890 149.3543 0001731  48.4654 311.6675 14.29360979227612
H-2A R/B                
1 27601U 02056E   26189.92532035  .00000152  00000+0  67521-4 0  9996
2 27601  98.3324 145.8088 0070502 159.4596 268.9584 14.33831655231483
CZ-4B R/B               
1 28059U 03049C   26189.96054132  .00000168  00000+0  50290-4 0  9990
2 28059  98.6905 189.6747 0047290 220.5516 139.2154 14.55113374204238
CZ-2C R/B               
1 28222U 04012C   26189.80327200  .00099446  00000+0  44522-3 0  9992
2 28222  97.7050 268.0571 0011127 210.2414 149.8213 15.83823781223316
SL-16 R/B               
1 28353U 04021B   26189.86987195  .00000229  00000+0  14369-3 0  9995
2 28353  71.0022 338.1826 0006476 230.4599 129.5952 14.14614688139976
CZ-4B R/B               
1 28415U 04035C   26189.63887381  .00005088  00000+0  17074-3 0  9994
2 28415  97.3363 222.4732 0028889 257.1716 102.6297 15.30931286198406
CZ-2C R/B               
1 28480U 04046B   26189.64734098  .00000067  00000+0  39595-4 0  9990
2 28480  98.1926  97.0851 0139756 156.6756 204.0851 14.27031819125752
ARIANE 5 R/B            
1 28499U 04049H   26189.75258899  .00000387  00000+0  49396-4 0  9990
2 28499  98.2737   2.8409 0082959 319.4310  40.0739 14.85474250163763
CZ-2D R/B               
1 28738U 05024B   26189.62441742  .00050849  00000+0  38743-3 0  9998
2 28738  97.3477 210.1597 0001260 219.5546 140.5626 15.72109039158705
ALOS (DAICHI)           
1 28931U 06002A   26189.87123325  .00000727  00000+0  12919-3 0  9998
2 28931  98.1334 145.3726 0000782  81.1093 279.0202 14.70093988 91281
